ONEWEB-0020             
1 45133U 20008C   24122.49043405  .00001559  00000+0  44279-2 0  9993
2 45133  87.8981 190.6323 0002386 100.6199 259.5197 13.10381881207403
ONEWEB-0021             
1 45134U 20008D   24122.88715929 -.00000008  00000+0 -57990-4 0  9990
2 45134  87.8982 190.5672 0002098 102.2383 257.8979 13.10368837206981
ONEWEB-0023             
1 45136U 20008F   24122.89960418 -.00000521  00000+0 -15301-2 0  9996
2 45136  87.8981 190.5550 0001948  89.5341 270.6010 13.10371498206415
ONEWEB-0024             
1 45137U 20008G   24122.48878033  .00000559  00000+0  15649-2 0  9997
2 45137  87.8974 190.6288 0002072 103.9611 256.1747 13.10371656207274
ONEWEB-0025             
1 45138U 20008H   24122.88882218 -.00000089  00000+0 -29200-3 0  9991
2 45138  87.8970 190.5497 0001861  99.5696 260.5642 13.10370271206904
ONEWEB-0026             
1 45139U 20008J   24122.83803639  .00000317  00000+0  85869-3 0  9992
2 45139  87.9002 175.4867 0002251  97.6265 262.5119 13.11416214209352
ONEWEB-0028             
1 45140U 20008K   24122.86968163 -.00000474  00000+0 -13734-2 0  9998
2 45140  87.9000 175.5229 0001445  96.1927 263.9366 13.11418071206874
ONEWEB-0032             
1 45141U 20008L   24122.90375266 -.00000705  00000+0 -20552-2 0  9993
2 45141  87.8973 190.5923 0001891 103.0865 257.0474 13.10372640206633
